[{"OBJECT_NAME":"STARLINK-4100","OBJECT_ID":"2022-083N","EPOCH":"2026-03-09T14:04:20.550144","MEAN_MOTION":15.08836801,"ECCENTRICITY":0.0001354,"INCLINATION":53.2183,"RA_OF_ASC_NODE":174.5977,"ARG_OF_PERICENTER":90.672,"MEAN_ANOMALY":269.4427,"EPHEMERIS_TYPE":0,"CLASSIFICATION_TYPE":"U","NORAD_CAT_ID":53144,"ELEMENT_SET_NO":999,"REV_AT_EPOCH":20120,"BSTAR":-2.2179e-5,"MEAN_MOTION_DOT":-6.41e-6,"MEAN_MOTION_DDOT":0},{"OBJECT_NAME":"OBJECT H","OBJECT_ID":"2017-042H","EPOCH":"2026-03-09T21:54:40.929408","MEAN_MOTION":15.07257911,"ECCENTRICITY":0.00117342,"INCLINATION":97.4058,"RA_OF_ASC_NODE":233.05,"ARG_OF_PERICENTER":93.954,"MEAN_ANOMALY":266.303,"EPHEMERIS_TYPE":0,"CLASSIFICATION_TYPE":"U","NORAD_CAT_ID":42832,"ELEMENT_SET_NO":999,"REV_AT_EPOCH":47198,"BSTAR":0.00041037265,"MEAN_MOTION_DOT":6.138e-5,"MEAN_MOTION_DDOT":0}]
